ORBCOMM FM103 [+]       
1 40091U 14040F   24058.50555080  .00000893  00000+0  23701-3 0  9995
2 40091  47.0053 101.0233 0002879 262.7072  97.3485 14.56333155494725
ORBCOMM FM114 [+]       
1 41179U 15081A   24058.88284094  .00001141  00000+0  29230-3 0  9994
2 41179  47.0045   8.5549 0002294 317.4892  42.5815 14.56342095435147
ORBCOMM FM119 [-]       
1 41180U 15081B   24058.92035837  .00000870  00000+0  23186-3 0  9992
2 41180  47.0002 277.5684 0001120  15.1835 344.9083 14.56325970436405
ORBCOMM FM105 [-]       
1 41181U 15081C   24058.90831938  .00000435  00000+0  17098-3 0  9999
2 41181  46.9996 237.9333 0001807 335.4117  24.6676 14.44249064432020
ORBCOMM FM110 [+]       
1 41182U 15081D   24058.85985956  .00001454  00000+0  36214-3 0  9997
2 41182  47.0035   8.0760 0001085 169.4868 190.6040 14.56350456435016
ORBCOMM FM118 [+]       
1 41183U 15081E   24058.90575579  .00001374  00000+0  34425-3 0  9993
2 41183  47.0057   8.1509 0001205 163.6888 196.4036 14.56349418435122
ORBCOMM FM112 [+]       
1 41184U 15081F   24058.69246110  .00001014  00000+0  26405-3 0  9996
2 41184  46.9984 277.8759 0000945 348.9269  11.1594 14.56316439436314
ORBCOMM FM113 [+]       
1 41185U 15081G   24058.32646076  .00001169  00000+0  29876-3 0  9998
2 41185  47.0005 279.8529 0000684  15.0749 345.0156 14.56332579436241
